GLOBALSTAR M024         
1 25883U 99043A   25237.73445747 -.00000063  00000+0  50268-4 0  9995
2 25883  51.9974 223.6997 0001263 223.0984 307.9741 11.10164097122580
GLOBALSTAR M027         
1 25884U 99043B   25237.46658031 -.00000037  00000+0  10285-2 0  9992
2 25884  52.0227 304.2536 0021779 103.9108 256.4110 11.04372499148897
GLOBALSTAR M054         
1 25885U 99043C   25237.78204037 -.00000130  00000+0 -15065-2 0  9997
2 25885  52.0146  59.1649 0004620 298.9280  74.3750 11.39220113126987
GLOBALSTAR M053         
1 25886U 99043D   25237.85946927 -.00000058  00000+0  29897-3 0  9994
2 25886  52.0020   9.9402 0003320 187.4751 338.6948 11.27666375127303
GLOBALSTAR M058         
1 25907U 99049A   25237.58704802 -.00000044  00000+0  53841-3 0  9999
2 25907  51.9936 283.8626 0002251  52.0943 308.0095 11.93201987549820
GLOBALSTAR M050         
1 25908U 99049B   25237.85837106 -.00000123  00000+0 -39418-3 0  9997
2 25908  51.9986 285.6082 0009400 169.6366   1.2103 12.07455605156605
GLOBALSTAR M033         
1 25909U 99049C   25237.89109002  .00000006  00000+0  93803-3 0  9995
2 25909  51.9901 152.5318 0014381  46.6727 313.5317 12.20297476544259
GLOBALSTAR M055         
1 25910U 99049D   25237.93125134 -.00000081  00000+0  11678-3 0  9990
2 25910  52.0010 159.7711 0006742 280.7193  79.2899 12.29431265176864
